SWAS                    
1 25560U 98071A   26068.53487068  .00004636  00000+0  29986-3 0  9991
2 25560  69.8952 124.3662 0004099  14.3215 345.8065 15.08888192482231
STARLINK-4289           
1 53024U 22076AQ  26068.53206859 -.00001656  00000+0 -85945-4 0  9995
2 53024  53.2167  84.8281 0001679  80.9670 279.1512 15.08844956202960
